[{"OBJECT_NAME":"STARLINK-35770","OBJECT_ID":"2025-288U","EPOCH":"2025-12-23T06:00:00.999648","MEAN_MOTION":15.74031466,"ECCENTRICITY":9.655e-5,"INCLINATION":43.0005,"RA_OF_ASC_NODE":102.8497,"ARG_OF_PERICENTER":267.8111,"MEAN_ANOMALY":256.4535,"EPHEMERIS_TYPE":0,"CLASSIFICATION_TYPE":"U","NORAD_CAT_ID":66977,"ELEMENT_SET_NO":999,"REV_AT_EPOCH":352,"BSTAR":-0.014996804,"MEAN_MOTION_DOT":-0.01913818,"MEAN_MOTION_DDOT":0},{"OBJECT_NAME":"STARLINK-35787","OBJECT_ID":"2025-288V","EPOCH":"2025-12-23T06:00:00.999648","MEAN_MOTION":15.74016924,"ECCENTRICITY":0.00013085,"INCLINATION":43.0005,"RA_OF_ASC_NODE":102.8343,"ARG_OF_PERICENTER":255.5721,"MEAN_ANOMALY":274.4532,"EPHEMERIS_TYPE":0,"CLASSIFICATION_TYPE":"U","NORAD_CAT_ID":66978,"ELEMENT_SET_NO":999,"REV_AT_EPOCH":352,"BSTAR":-0.014878282,"MEAN_MOTION_DOT":-0.019,"MEAN_MOTION_DDOT":0},{"OBJECT_NAME":"STARLINK-36107","OBJECT_ID":"2025-288W","EPOCH":"2025-12-23T06:00:00.999648","MEAN_MOTION":15.74028886,"ECCENTRICITY":0.00011382,"INCLINATION":43.0005,"RA_OF_ASC_NODE":102.8299,"ARG_OF_PERICENTER":274.0197,"MEAN_ANOMALY":257.914,"EPHEMERIS_TYPE":0,"CLASSIFICATION_TYPE":"U","NORAD_CAT_ID":66979,"ELEMENT_SET_NO":999,"REV_AT_EPOCH":352,"BSTAR":-0.014980197,"MEAN_MOTION_DOT":-0.01911953,"MEAN_MOTION_DDOT":0},{"OBJECT_NAME":"STARLINK-36086","OBJECT_ID":"2025-288X","EPOCH":"2025-12-23T06:00:00.999648","MEAN_MOTION":15.74033117,"ECCENTRICITY":0.00011162,"INCLINATION":43.0006,"RA_OF_ASC_NODE":102.8248,"ARG_OF_PERICENTER":275.1216,"MEAN_ANOMALY":258.7236,"EPHEMERIS_TYPE":0,"CLASSIFICATION_TYPE":"U","NORAD_CAT_ID":66980,"ELEMENT_SET_NO":999,"REV_AT_EPOCH":352,"BSTAR":-0.014995058,"MEAN_MOTION_DOT":-0.01913877,"MEAN_MOTION_DDOT":0},{"OBJECT_NAME":"STARLINK-36142","OBJECT_ID":"2025-288Y","EPOCH":"2025-12-23T06:00:00.999648","MEAN_MOTION":15.74030931,"ECCENTRICITY":0.00012286,"INCLINATION":43.0005,"RA_OF_ASC_NODE":102.8203,"ARG_OF_PERICENTER":269.5927,"MEAN_ANOMALY":266.1763,"EPHEMERIS_TYPE":0,"CLASSIFICATION_TYPE":"U","NORAD_CAT_ID":66981,"ELEMENT_SET_NO":999,"REV_AT_EPOCH":352,"BSTAR":-0.015013996,"MEAN_MOTION_DOT":-0.01915904,"MEAN_MOTION_DDOT":0},{"OBJECT_NAME":"STARLINK-36113","OBJECT_ID":"2025-288Z","EPOCH":"2025-12-23T06:00:00.999648","MEAN_MOTION":15.74026234,"ECCENTRICITY":0.00012695,"INCLINATION":43.0006,"RA_OF_ASC_NODE":102.8149,"ARG_OF_PERICENTER":263.2912,"MEAN_ANOMALY":274.3919,"EPHEMERIS_TYPE":0,"CLASSIFICATION_TYPE":"U","NORAD_CAT_ID":66982,"ELEMENT_SET_NO":999,"REV_AT_EPOCH":352,"BSTAR":-0.01491408,"MEAN_MOTION_DOT":-0.01904587,"MEAN_MOTION_DDOT":0},{"OBJECT_NAME":"STARLINK-36145","OBJECT_ID":"2025-288AA","EPOCH":"2025-12-23T06:00:00.999648","MEAN_MOTION":15.74028896,"ECCENTRICITY":0.00010113,"INCLINATION":43.0007,"RA_OF_ASC_NODE":102.8056,"ARG_OF_PERICENTER":268.1532,"MEAN_ANOMALY":273.3692,"EPHEMERIS_TYPE":0,"CLASSIFICATION_TYPE":"U","NORAD_CAT_ID":66983,"ELEMENT_SET_NO":999,"REV_AT_EPOCH":352,"BSTAR":-0.015004733,"MEAN_MOTION_DOT":-0.01914545,"MEAN_MOTION_DDOT":0},{"OBJECT_NAME":"STARLINK-35591","OBJECT_ID":"2025-288AB","EPOCH":"2025-12-23T06:00:00.999648","MEAN_MOTION":15.74033837,"ECCENTRICITY":9.782e-5,"INCLINATION":43.0004,"RA_OF_ASC_NODE":102.8096,"ARG_OF_PERICENTER":263.2426,"MEAN_ANOMALY":276.3556,"EPHEMERIS_TYPE":0,"CLASSIFICATION_TYPE":"U","NORAD_CAT_ID":66984,"ELEMENT_SET_NO":999,"REV_AT_EPOCH":352,"BSTAR":-0.015001775,"MEAN_MOTION_DOT":-0.01914549,"MEAN_MOTION_DDOT":0},{"OBJECT_NAME":"STARLINK-36103","OBJECT_ID":"2025-288AC","EPOCH":"2025-12-23T06:00:00.999648","MEAN_MOTION":15.7403011,"ECCENTRICITY":0.00012043,"INCLINATION":43.0005,"RA_OF_ASC_NODE":102.8005,"ARG_OF_PERICENTER":271.364,"MEAN_ANOMALY":272.0722,"EPHEMERIS_TYPE":0,"CLASSIFICATION_TYPE":"U","NORAD_CAT_ID":66985,"ELEMENT_SET_NO":999,"REV_AT_EPOCH":352,"BSTAR":-0.014995058,"MEAN_MOTION_DOT":-0.01913737,"MEAN_MOTION_DDOT":0},{"OBJECT_NAME":"STARLINK-36135","OBJECT_ID":"2025-288AD","EPOCH":"2025-12-23T06:00:00.999648","MEAN_MOTION":15.74029165,"ECCENTRICITY":0.00012667,"INCLINATION":43.0006,"RA_OF_ASC_NODE":102.7946,"ARG_OF_PERICENTER":265.5753,"MEAN_ANOMALY":279.7782,"EPHEMERIS_TYPE":0,"CLASSIFICATION_TYPE":"U","NORAD_CAT_ID":66986,"ELEMENT_SET_NO":999,"REV_AT_EPOCH":352,"BSTAR":-0.014975216,"MEAN_MOTION_DOT":-0.01911538,"MEAN_MOTION_DDOT":0},{"OBJECT_NAME":"STARLINK-36147","OBJECT_ID":"2025-288AE","EPOCH":"2025-12-23T06:00:00.999648","MEAN_MOTION":15.74009548,"ECCENTRICITY":0.00010247,"INCLINATION":43.0006,"RA_OF_ASC_NODE":102.7908,"ARG_OF_PERICENTER":268.7246,"MEAN_ANOMALY":278.5603,"EPHEMERIS_TYPE":0,"CLASSIFICATION_TYPE":"U","NORAD_CAT_ID":66987,"ELEMENT_SET_NO":999,"REV_AT_EPOCH":352,"BSTAR":-0.014821265,"MEAN_MOTION_DOT":-0.01892926,"MEAN_MOTION_DDOT":0},{"OBJECT_NAME":"STARLINK-35660","OBJECT_ID":"2025-293A","EPOCH":"2025-12-23T06:00:00.999648","MEAN_MOTION":15.84831012,"ECCENTRICITY":0.00037425,"INCLINATION":69.9941,"RA_OF_ASC_NODE":293.3141,"ARG_OF_PERICENTER":276.6431,"MEAN_ANOMALY":162.9288,"EPHEMERIS_TYPE":0,"CLASSIFICATION_TYPE":"U","NORAD_CAT_ID":67003,"ELEMENT_SET_NO":999,"REV_AT_EPOCH":186,"BSTAR":-0.0077992445,"MEAN_MOTION_DOT":-0.01596508,"MEAN_MOTION_DDOT":0},{"OBJECT_NAME":"STARLINK-35913","OBJECT_ID":"2025-293B","EPOCH":"2025-12-23T06:00:00.999648","MEAN_MOTION":15.84817277,"ECCENTRICITY":0.00036029,"INCLINATION":69.9939,"RA_OF_ASC_NODE":293.3113,"ARG_OF_PERICENTER":271.9328,"MEAN_ANOMALY":169.8884,"EPHEMERIS_TYPE":0,"CLASSIFICATION_TYPE":"U","NORAD_CAT_ID":67004,"ELEMENT_SET_NO":999,"REV_AT_EPOCH":186,"BSTAR":-0.0077721691,"MEAN_MOTION_DOT":-0.0159057,"MEAN_MOTION_DDOT":0},{"OBJECT_NAME":"STARLINK-36148","OBJECT_ID":"2025-293C","EPOCH":"2025-12-23T06:00:00.999648","MEAN_MOTION":15.84803397,"ECCENTRICITY":0.00036827,"INCLINATION":69.994,"RA_OF_ASC_NODE":293.309,"ARG_OF_PERICENTER":272.6678,"MEAN_ANOMALY":171.5224,"EPHEMERIS_TYPE":0,"CLASSIFICATION_TYPE":"U","NORAD_CAT_ID":67005,"ELEMENT_SET_NO":999,"REV_AT_EPOCH":186,"BSTAR":-0.0077854821,"MEAN_MOTION_DOT":-0.01592107,"MEAN_MOTION_DDOT":0},{"OBJECT_NAME":"STARLINK-36156","OBJECT_ID":"2025-293D","EPOCH":"2025-12-23T06:00:00.999648","MEAN_MOTION":15.84735298,"ECCENTRICITY":0.00037761,"INCLINATION":69.9939,"RA_OF_ASC_NODE":293.3017,"ARG_OF_PERICENTER":274.5387,"MEAN_ANOMALY":175.1377,"EPHEMERIS_TYPE":0,"CLASSIFICATION_TYPE":"U","NORAD_CAT_ID":67006,"ELEMENT_SET_NO":999,"REV_AT_EPOCH":186,"BSTAR":-0.0077834077,"MEAN_MOTION_DOT":-0.01587249,"MEAN_MOTION_DDOT":0},{"OBJECT_NAME":"STARLINK-36123","OBJECT_ID":"2025-293E","EPOCH":"2025-12-23T06:00:00.999648","MEAN_MOTION":15.84774364,"ECCENTRICITY":0.00038074,"INCLINATION":69.9938,"RA_OF_ASC_NODE":293.3047,"ARG_OF_PERICENTER":272.901,"MEAN_ANOMALY":174.244,"EPHEMERIS_TYPE":0,"CLASSIFICATION_TYPE":"U","NORAD_CAT_ID":67007,"ELEMENT_SET_NO":999,"REV_AT_EPOCH":186,"BSTAR":-0.0078164884,"MEAN_MOTION_DOT":-0.01595836,"MEAN_MOTION_DDOT":0}]
