STARLINK-35770          
1 66977U 25288U   25357.25001157 -.01913818  00000+0 -14997-1 0  9996
2 66977  43.0005 102.8497 0000965 267.8111 256.4535 15.74031466  3523
STARLINK-35787          
1 66978U 25288V   25357.25001157 -.01900000  00000+0 -14878-1 0  9994
2 66978  43.0005 102.8343 0001308 255.5721 274.4532 15.74016924  3526
STARLINK-36107          
1 66979U 25288W   25357.25001157 -.01911953  00000+0 -14980-1 0  9998
2 66979  43.0005 102.8299 0001138 274.0197 257.9140 15.74028886  3522
STARLINK-36086          
1 66980U 25288X   25357.25001157 -.01913877  00000+0 -14995-1 0  9993
2 66980  43.0006 102.8248 0001116 275.1216 258.7236 15.74033117  3527
STARLINK-36142          
1 66981U 25288Y   25357.25001157 -.01915904  00000+0 -15014-1 0  9990
2 66981  43.0005 102.8203 0001228 269.5927 266.1763 15.74030931  3527
STARLINK-36113          
1 66982U 25288Z   25357.25001157 -.01904587  00000+0 -14914-1 0  9994
2 66982  43.0006 102.8149 0001269 263.2912 274.3919 15.74026234  3523
STARLINK-36145          
1 66983U 25288AA  25357.25001157 -.01914545  00000+0 -15005-1 0  9992
2 66983  43.0007 102.8056 0001011 268.1532 273.3692 15.74028896  3522
STARLINK-35591          
1 66984U 25288AB  25357.25001157 -.01914549  00000+0 -15002-1 0  9994
2 66984  43.0004 102.8096 0000978 263.2426 276.3556 15.74033837  3526
STARLINK-36103          
1 66985U 25288AC  25357.25001157 -.01913737  00000+0 -14995-1 0  9993
2 66985  43.0005 102.8005 0001204 271.3640 272.0722 15.74030110  3528
STARLINK-36135          
1 66986U 25288AD  25357.25001157 -.01911538  00000+0 -14975-1 0  9999
2 66986  43.0006 102.7946 0001266 265.5753 279.7782 15.74029165  3529
STARLINK-36147          
1 66987U 25288AE  25357.25001157 -.01892926  00000+0 -14821-1 0  9999
2 66987  43.0006 102.7908 0001024 268.7246 278.5603 15.74009548  3524
STARLINK-35660          
1 67003U 25293A   25357.25001157 -.01596508  00000+0 -77992-2 0  9991
2 67003  69.9941 293.3141 0003742 276.6431 162.9288 15.84831012  1868
STARLINK-35913          
1 67004U 25293B   25357.25001157 -.01590570  00000+0 -77722-2 0  9996
2 67004  69.9939 293.3113 0003602 271.9328 169.8884 15.84817277  1868
STARLINK-36148          
1 67005U 25293C   25357.25001157 -.01592107  00000+0 -77855-2 0  9992
2 67005  69.9940 293.3090 0003682 272.6678 171.5224 15.84803397  1865
STARLINK-36156          
1 67006U 25293D   25357.25001157 -.01587249  00000+0 -77834-2 0  9991
2 67006  69.9939 293.3017 0003776 274.5387 175.1377 15.84735298  1868
STARLINK-36123          
1 67007U 25293E   25357.25001157 -.01595836  00000+0 -78165-2 0  9991
2 67007  69.9938 293.3047 0003807 272.9010 174.2440 15.84774364  1869
